[
  {
    "OBJECT_NAME": "NOAA 1",
    "OBJECT_ID": "1970-106A",
    "EPOCH": "2025-05-10T22:05:51.257760",
    "MEAN_MOTION": 12.540427,
    "ECCENTRICITY": 0.0031901,
    "INCLINATION": 101.3919,
    "RA_OF_ASC_NODE": 177.1531,
    "ARG_OF_PERICENTER": 56.3802,
    "MEAN_ANOMALY": 116.0783,
    "EPHEMERIS_TYPE": 0,
    "CLASSIFICATION_TYPE": "U",
    "NORAD_CAT_ID": 4793,
    "ELEMENT_SET_NO": 999,
    "REV_AT_EPOCH": 49075,
    "BSTAR": 5.0677e-05,
    "MEAN_MOTION_DOT": -3.5e-07,
    "MEAN_MOTION_DDOT": 0
  },
  {
    "OBJECT_NAME": "NOAA 2 (ITOS-D)",
    "OBJECT_ID": "1972-082A",
    "EPOCH": "2025-05-10T11:40:18.844608",
    "MEAN_MOTION": 12.53199996,
    "ECCENTRICITY": 0.0003839,
    "INCLINATION": 102.022,
    "RA_OF_ASC_NODE": 139.351,
    "ARG_OF_PERICENTER": 212.313,
    "MEAN_ANOMALY": 301.7614,
    "EPHEMERIS_TYPE": 0,
    "CLASSIFICATION_TYPE": "U",
    "NORAD_CAT_ID": 6235,
    "ELEMENT_SET_NO": 999,
    "REV_AT_EPOCH": 40450,
    "BSTAR": 0.00017717,
    "MEAN_MOTION_DOT": -1.8e-07,
    "MEAN_MOTION_DDOT": 0
  },
  {
    "OBJECT_NAME": "NOAA 3",
    "OBJECT_ID": "1973-086A",
    "EPOCH": "2025-05-10T18:19:03.628416",
    "MEAN_MOTION": 12.40381973,
    "ECCENTRICITY": 0.0006743,
    "INCLINATION": 102.2893,
    "RA_OF_ASC_NODE": 135.7893,
    "ARG_OF_PERICENTER": 141.4698,
    "MEAN_ANOMALY": 31.6547,
    "EPHEMERIS_TYPE": 0,
    "CLASSIFICATION_TYPE": "U",
    "NORAD_CAT_ID": 6920,
    "ELEMENT_SET_NO": 999,
    "REV_AT_EPOCH": 33219,
    "BSTAR": 0.00010908,
    "MEAN_MOTION_DOT": -3.2e-07,
    "MEAN_MOTION_DDOT": 0
  },
  {
    "OBJECT_NAME": "NOAA 4",
    "OBJECT_ID": "1974-089A",
    "EPOCH": "2025-05-10T11:00:52.999200",
    "MEAN_MOTION": 12.53194457,
    "ECCENTRICITY": 0.0008603,
    "INCLINATION": 102.0037,
    "RA_OF_ASC_NODE": 133.9683,
    "ARG_OF_PERICENTER": 243.3127,
    "MEAN_ANOMALY": 248.3718,
    "EPHEMERIS_TYPE": 0,
    "CLASSIFICATION_TYPE": "U",
    "NORAD_CAT_ID": 7529,
    "ELEMENT_SET_NO": 999,
    "REV_AT_EPOCH": 30907,
    "BSTAR": 9.1694e-05,
    "MEAN_MOTION_DOT": -3.2e-07,
    "MEAN_MOTION_DDOT": 0
  },
  {
    "OBJECT_NAME": "NOAA 5",
    "OBJECT_ID": "1976-077A",
    "EPOCH": "2025-05-10T10:54:04.271904",
    "MEAN_MOTION": 12.37817572,
    "ECCENTRICITY": 0.0009838,
    "INCLINATION": 102.2565,
    "RA_OF_ASC_NODE": 109.9039,
    "ARG_OF_PERICENTER": 359.3044,
    "MEAN_ANOMALY": 119.2619,
    "EPHEMERIS_TYPE": 0,
    "CLASSIFICATION_TYPE": "U",
    "NORAD_CAT_ID": 9057,
    "ELEMENT_SET_NO": 999,
    "REV_AT_EPOCH": 20464,
    "BSTAR": 0.00015126,
    "MEAN_MOTION_DOT": -2.6e-07,
    "MEAN_MOTION_DDOT": 0
  },
  {
    "OBJECT_NAME": "TIROS N",
    "OBJECT_ID": "1978-096A",
    "EPOCH": "2025-05-10T19:18:39.099744",
    "MEAN_MOTION": 14.19180282,
    "ECCENTRICITY": 0.0009748,
    "INCLINATION": 98.4897,
    "RA_OF_ASC_NODE": 164.3274,
    "ARG_OF_PERICENTER": 334.6112,
    "MEAN_ANOMALY": 25.4585,
    "EPHEMERIS_TYPE": 0,
    "CLASSIFICATION_TYPE": "U",
    "NORAD_CAT_ID": 11060,
    "ELEMENT_SET_NO": 999,
    "REV_AT_EPOCH": 62191,
    "BSTAR": 0.00010936,
    "MEAN_MOTION_DOT": 1.87e-06,
    "MEAN_MOTION_DDOT": 0
  },
  {
    "OBJECT_NAME": "NOAA 6",
    "OBJECT_ID": "1979-057A",
    "EPOCH": "2025-05-10T18:57:55.557504",
    "MEAN_MOTION": 14.35154984,
    "ECCENTRICITY": 0.0010176,
    "INCLINATION": 98.6013,
    "RA_OF_ASC_NODE": 157.3332,
    "ARG_OF_PERICENTER": 18.2313,
    "MEAN_ANOMALY": 341.9235,
    "EPHEMERIS_TYPE": 0,
    "CLASSIFICATION_TYPE": "U",
    "NORAD_CAT_ID": 11416,
    "ELEMENT_SET_NO": 999,
    "REV_AT_EPOCH": 39344,
    "BSTAR": 0.00014927,
    "MEAN_MOTION_DOT": 3.82e-06,
    "MEAN_MOTION_DDOT": 0
  },
  {
    "OBJECT_NAME": "NOAA 7",
    "OBJECT_ID": "1981-059A",
    "EPOCH": "2025-05-10T11:20:37.872384",
    "MEAN_MOTION": 14.17700553,
    "ECCENTRICITY": 0.0011028,
    "INCLINATION": 98.8451,
    "RA_OF_ASC_NODE": 195.3306,
    "ARG_OF_PERICENTER": 345.4747,
    "MEAN_ANOMALY": 14.6109,
    "EPHEMERIS_TYPE": 0,
    "CLASSIFICATION_TYPE": "U",
    "NORAD_CAT_ID": 12553,
    "ELEMENT_SET_NO": 999,
    "REV_AT_EPOCH": 26768,
    "BSTAR": 5.5564e-05,
    "MEAN_MOTION_DOT": 6.9e-07,
    "MEAN_MOTION_DDOT": 0
  },
  {
    "OBJECT_NAME": "NOAA 8",
    "OBJECT_ID": "1983-022A",
    "EPOCH": "2025-05-10T17:29:47.294304",
    "MEAN_MOTION": 14.29621281,
    "ECCENTRICITY": 0.0014783,
    "INCLINATION": 98.7375,
    "RA_OF_ASC_NODE": 137.5452,
    "ARG_OF_PERICENTER": 0.5153,
    "MEAN_ANOMALY": 359.6041,
    "EPHEMERIS_TYPE": 0,
    "CLASSIFICATION_TYPE": "U",
    "NORAD_CAT_ID": 13923,
    "ELEMENT_SET_NO": 999,
    "REV_AT_EPOCH": 19382,
    "BSTAR": 8.8579e-05,
    "MEAN_MOTION_DOT": 1.82e-06,
    "MEAN_MOTION_DDOT": 0
  },
  {
    "OBJECT_NAME": "NOAA 9",
    "OBJECT_ID": "1984-123A",
    "EPOCH": "2025-05-10T15:55:54.067872",
    "MEAN_MOTION": 14.16914728,
    "ECCENTRICITY": 0.0015517,
    "INCLINATION": 99.1228,
    "RA_OF_ASC_NODE": 142.37,
    "ARG_OF_PERICENTER": 52.5344,
    "MEAN_ANOMALY": 83.6878,
    "EPHEMERIS_TYPE": 0,
    "CLASSIFICATION_TYPE": "U",
    "NORAD_CAT_ID": 15427,
    "ELEMENT_SET_NO": 999,
    "REV_AT_EPOCH": 8665,
    "BSTAR": 0.0001074,
    "MEAN_MOTION_DOT": 1.69e-06,
    "MEAN_MOTION_DDOT": 0
  },
  {
    "OBJECT_NAME": "NOAA 10",
    "OBJECT_ID": "1986-073A",
    "EPOCH": "2025-05-10T17:56:19.677408",
    "MEAN_MOTION": 14.28995564,
    "ECCENTRICITY": 0.0013286,
    "INCLINATION": 98.6737,
    "RA_OF_ASC_NODE": 120.2812,
    "ARG_OF_PERICENTER": 93.1846,
    "MEAN_ANOMALY": 79.3177,
    "EPHEMERIS_TYPE": 0,
    "CLASSIFICATION_TYPE": "U",
    "NORAD_CAT_ID": 16969,
    "ELEMENT_SET_NO": 999,
    "REV_AT_EPOCH": 1218,
    "BSTAR": 8.5428e-05,
    "MEAN_MOTION_DOT": 1.72e-06,
    "MEAN_MOTION_DDOT": 0
  },
  {
    "OBJECT_NAME": "NOAA 11",
    "OBJECT_ID": "1988-089A",
    "EPOCH": "2025-05-10T11:03:22.838400",
    "MEAN_MOTION": 14.15740234,
    "ECCENTRICITY": 0.0011486,
    "INCLINATION": 98.569,
    "RA_OF_ASC_NODE": 85.4878,
    "ARG_OF_PERICENTER": 19.9939,
    "MEAN_ANOMALY": 340.1683,
    "EPHEMERIS_TYPE": 0,
    "CLASSIFICATION_TYPE": "U",
    "NORAD_CAT_ID": 19531,
    "ELEMENT_SET_NO": 999,
    "REV_AT_EPOCH": 89049,
    "BSTAR": 5.9568e-05,
    "MEAN_MOTION_DOT": 7.5e-07,
    "MEAN_MOTION_DDOT": 0
  },
  {
    "OBJECT_NAME": "NOAA 12",
    "OBJECT_ID": "1991-032A",
    "EPOCH": "2025-05-10T13:32:46.256064",
    "MEAN_MOTION": 14.26601607,
    "ECCENTRICITY": 0.0014634,
    "INCLINATION": 98.5867,
    "RA_OF_ASC_NODE": 120.865,
    "ARG_OF_PERICENTER": 122.0919,
    "MEAN_ANOMALY": 238.1684,
    "EPHEMERIS_TYPE": 0,
    "CLASSIFICATION_TYPE": "U",
    "NORAD_CAT_ID": 21263,
    "ELEMENT_SET_NO": 999,
    "REV_AT_EPOCH": 76755,
    "BSTAR": 7.379e-05,
    "MEAN_MOTION_DOT": 1.35e-06,
    "MEAN_MOTION_DDOT": 0
  },
  {
    "OBJECT_NAME": "NOAA 13",
    "OBJECT_ID": "1993-050A",
    "EPOCH": "2025-05-10T18:31:15.700800",
    "MEAN_MOTION": 14.13518906,
    "ECCENTRICITY": 0.0009075,
    "INCLINATION": 98.6547,
    "RA_OF_ASC_NODE": 82.7071,
    "ARG_OF_PERICENTER": 191.4129,
    "MEAN_ANOMALY": 168.684,
    "EPHEMERIS_TYPE": 0,
    "CLASSIFICATION_TYPE": "U",
    "NORAD_CAT_ID": 22739,
    "ELEMENT_SET_NO": 999,
    "REV_AT_EPOCH": 63676,
    "BSTAR": 8.6458e-05,
    "MEAN_MOTION_DOT": 1.2e-06,
    "MEAN_MOTION_DDOT": 0
  },
  {
    "OBJECT_NAME": "NOAA 14",
    "OBJECT_ID": "1994-089A",
    "EPOCH": "2025-05-10T21:13:36.982848",
    "MEAN_MOTION": 14.14579644,
    "ECCENTRICITY": 0.0009921,
    "INCLINATION": 98.4628,
    "RA_OF_ASC_NODE": 115.2388,
    "ARG_OF_PERICENTER": 153.3899,
    "MEAN_ANOMALY": 206.7786,
    "EPHEMERIS_TYPE": 0,
    "CLASSIFICATION_TYPE": "U",
    "NORAD_CAT_ID": 23455,
    "ELEMENT_SET_NO": 999,
    "REV_AT_EPOCH": 56656,
    "BSTAR": 5.1801e-05,
    "MEAN_MOTION_DOT": 5.9e-07,
    "MEAN_MOTION_DDOT": 0
  },
  {
    "OBJECT_NAME": "NOAA 15",
    "OBJECT_ID": "1998-030A",
    "EPOCH": "2025-05-10T20:54:06.383808",
    "MEAN_MOTION": 14.26962336,
    "ECCENTRICITY": 0.00115,
    "INCLINATION": 98.5371,
    "RA_OF_ASC_NODE": 156.7144,
    "ARG_OF_PERICENTER": 87.6251,
    "MEAN_ANOMALY": 272.6246,
    "EPHEMERIS_TYPE": 0,
    "CLASSIFICATION_TYPE": "U",
    "NORAD_CAT_ID": 25338,
    "ELEMENT_SET_NO": 999,
    "REV_AT_EPOCH": 40416,
    "BSTAR": 0.00012325,
    "MEAN_MOTION_DOT": 2.57e-06,
    "MEAN_MOTION_DDOT": 0
  },
  {
    "OBJECT_NAME": "NOAA 16",
    "OBJECT_ID": "2000-055A",
    "EPOCH": "2025-05-10T20:21:30.483072",
    "MEAN_MOTION": 14.13800162,
    "ECCENTRICITY": 0.0010806,
    "INCLINATION": 98.4905,
    "RA_OF_ASC_NODE": 160.8179,
    "ARG_OF_PERICENTER": 22.995,
    "MEAN_ANOMALY": 337.1705,
    "EPHEMERIS_TYPE": 0,
    "CLASSIFICATION_TYPE": "U",
    "NORAD_CAT_ID": 26536,
    "ELEMENT_SET_NO": 999,
    "REV_AT_EPOCH": 27037,
    "BSTAR": 7.8613e-05,
    "MEAN_MOTION_DOT": 1.08e-06,
    "MEAN_MOTION_DDOT": 0
  },
  {
    "OBJECT_NAME": "NOAA 17",
    "OBJECT_ID": "2002-032A",
    "EPOCH": "2025-05-10T13:51:33.991200",
    "MEAN_MOTION": 14.26002435,
    "ECCENTRICITY": 0.0012799,
    "INCLINATION": 98.8107,
    "RA_OF_ASC_NODE": 87.8855,
    "ARG_OF_PERICENTER": 79.518,
    "MEAN_ANOMALY": 280.7441,
    "EPHEMERIS_TYPE": 0,
    "CLASSIFICATION_TYPE": "U",
    "NORAD_CAT_ID": 27453,
    "ELEMENT_SET_NO": 999,
    "REV_AT_EPOCH": 18960,
    "BSTAR": 9.7795e-05,
    "MEAN_MOTION_DOT": 1.88e-06,
    "MEAN_MOTION_DDOT": 0
  },
  {
    "OBJECT_NAME": "NOAA 18",
    "OBJECT_ID": "2005-018A",
    "EPOCH": "2025-05-10T19:45:39.955104",
    "MEAN_MOTION": 14.1359494,
    "ECCENTRICITY": 0.0013767,
    "INCLINATION": 98.842,
    "RA_OF_ASC_NODE": 210.6338,
    "ARG_OF_PERICENTER": 209.6949,
    "MEAN_ANOMALY": 150.3443,
    "EPHEMERIS_TYPE": 0,
    "CLASSIFICATION_TYPE": "U",
    "NORAD_CAT_ID": 28654,
    "ELEMENT_SET_NO": 999,
    "REV_AT_EPOCH": 2954,
    "BSTAR": 0.00015067,
    "MEAN_MOTION_DOT": 2.4e-06,
    "MEAN_MOTION_DDOT": 0
  },
  {
    "OBJECT_NAME": "NOAA 19",
    "OBJECT_ID": "2009-005A",
    "EPOCH": "2025-05-10T19:48:01.327104",
    "MEAN_MOTION": 14.13359046,
    "ECCENTRICITY": 0.0014865,
    "INCLINATION": 98.9986,
    "RA_OF_ASC_NODE": 195.3604,
    "ARG_OF_PERICENTER": 88.9173,
    "MEAN_ANOMALY": 271.3702,
    "EPHEMERIS_TYPE": 0,
    "CLASSIFICATION_TYPE": "U",
    "NORAD_CAT_ID": 33591,
    "ELEMENT_SET_NO": 999,
    "REV_AT_EPOCH": 83790,
    "BSTAR": 0.00015148,
    "MEAN_MOTION_DOT": 2.39e-06,
    "MEAN_MOTION_DDOT": 0
  },
  {
    "OBJECT_NAME": "SUOMI NPP",
    "OBJECT_ID": "2011-061A",
    "EPOCH": "2025-05-10T20:49:02.714592",
    "MEAN_MOTION": 14.1953036,
    "ECCENTRICITY": 0.0002371,
    "INCLINATION": 98.7567,
    "RA_OF_ASC_NODE": 70.4651,
    "ARG_OF_PERICENTER": 59.9275,
    "MEAN_ANOMALY": 300.2136,
    "EPHEMERIS_TYPE": 0,
    "CLASSIFICATION_TYPE": "U",
    "NORAD_CAT_ID": 37849,
    "ELEMENT_SET_NO": 999,
    "REV_AT_EPOCH": 70135,
    "BSTAR": 6.8985e-05,
    "MEAN_MOTION_DOT": 1.01e-06,
    "MEAN_MOTION_DDOT": 0
  },
  {
    "OBJECT_NAME": "NOAA 20 (JPSS-1)",
    "OBJECT_ID": "2017-073A",
    "EPOCH": "2025-05-10T19:30:00.506304",
    "MEAN_MOTION": 14.19535774,
    "ECCENTRICITY": 0.0001852,
    "INCLINATION": 98.7406,
    "RA_OF_ASC_NODE": 69.7738,
    "ARG_OF_PERICENTER": 51.86,
    "MEAN_ANOMALY": 308.2742,
    "EPHEMERIS_TYPE": 0,
    "CLASSIFICATION_TYPE": "U",
    "NORAD_CAT_ID": 43013,
    "ELEMENT_SET_NO": 999,
    "REV_AT_EPOCH": 38738,
    "BSTAR": 5.6555e-05,
    "MEAN_MOTION_DOT": 7.5e-07,
    "MEAN_MOTION_DDOT": 0
  },
  {
    "OBJECT_NAME": "NOAA 21 (JPSS-2)",
    "OBJECT_ID": "2022-150A",
    "EPOCH": "2025-05-10T13:36:13.154688",
    "MEAN_MOTION": 14.19530287,
    "ECCENTRICITY": 4.52e-05,
    "INCLINATION": 98.7261,
    "RA_OF_ASC_NODE": 69.8769,
    "ARG_OF_PERICENTER": 249.0734,
    "MEAN_ANOMALY": 111.0394,
    "EPHEMERIS_TYPE": 0,
    "CLASSIFICATION_TYPE": "U",
    "NORAD_CAT_ID": 54234,
    "ELEMENT_SET_NO": 999,
    "REV_AT_EPOCH": 12942,
    "BSTAR": 6.161e-05,
    "MEAN_MOTION_DOT": 8.6e-07,
    "MEAN_MOTION_DDOT": 0
  }
]